id,spkid,full_name,pdes,name,prefix,neo,pha,H,G,M1,M2,K1,K2,PC,diameter,extent,albedo,rot_per,GM,BV,UB,IR,spec_B,spec_T,H_sigma,diameter_sigma,orbit_id,epoch,epoch_mjd,epoch_cal,equinox,e,a,q,i,om,w,ma,ad,n,tp,tp_cal,per,per_y,moid,moid_ld,moid_jup,t_jup,sigma_e,sigma_a,sigma_q,sigma_i,sigma_om,sigma_w,sigma_ma,sigma_ad,sigma_n,sigma_tp,sigma_per,class,producer,data_arc,first_obs,last_obs,n_obs_used,n_del_obs_used,n_dop_obs_used,condition_code,rms,two_body,A1,A2,A3,DT
a0005863,2005863,5863 Tara (1983 RB),5863,Tara,,Y,N,15.7,,,,,,,1.345,,0.488,5.867,,,,,,,,0.502,JPL 210,2459000.5,59000,20200531.0000000,J2000,0.5060072836228020,2.221719512180920,1.097513256850480,19.49278125238260,168.9057709373340,115.4723518415900,51.00552235666640,3.345925767511370,0.297625563084146,2458829.125196610000,20191211.6251966,1209.573520061580,3.31163181399474,0.235375,91.60088875,2.25503,3.405,3.7942E-08,5.6649E-09,8.5447E-08,7.8231E-06,1.2704E-05,1.5413E-05,8.0771E-06,8.5313E-09,1.1383E-09,2.6836E-05,4.6262E-06,AMO,Otto Matic,13034,1983-09-07,2019-05-15,988,,,0,0.50253,,,,,
a0005869,2005869,5869 Tanith (1988 VN4),5869,Tanith,,Y,N,17.2,,,,,,,,,,17.519,,,,,,,,,JPL 136,2459000.5,59000,20200531.0000000,J2000,0.3214688887252690,1.81198848565309,1.229490560787210,17.92337260444100,227.8787660793060,230.8777267533720,305.9038244818750,2.394486410518970,0.4040833197632240,2459134.373814810000,20201011.8738148,890.9053712262730,2.43916597187207,0.310284,120.75322428,2.94343,3.935,4.988E-08,7.0647E-09,8.8223E-08,6.9545E-06,1.3741E-05,1.7106E-05,1.0265E-05,9.3357E-09,2.3632E-09,2.5945E-05,5.2103E-06,AMO,Otto Matic,15867,1977-02-16,2020-07-27,602,,,0,0.47813,,,,,
a0005879,2005879,5879 Almeria (1992 CH1),5879,Almeria,,Y,N,17.6,,,,,,,,,,13.67,,,,,,,,,JPL 92,2459000.5,59000,20200531.0000000,J2000,0.2894532904487470,1.624434447575010,1.154236551606130,21.57960582276790,145.8481453499600,355.7083005479990,241.5728235940770,2.094632343543890,0.4760480473638390,2459249.271478130000,20210203.7714781,756.2261876580200,2.07043446312942,0.167179,65.06105143,2.92888,4.198,8.25E-08,4.1145E-09,1.3229E-07,6.1453E-06,2.3568E-05,3.0019E-05,2.1158E-05,5.3055E-09,1.8087E-09,4.4886E-05,2.8732E-06,AMO,Otto Matic,10437,1992-02-08,2020-09-05,450,,,0,0.57335,,,,,
a0006037,2006037,6037 (1988 EG),6037,,,Y,Y,18.7,,,,,,,,,,2.760,,,,,,,,,JPL 78,2459000.5,59000,20200531.0000000,J2000,0.4996135326145440,1.27131530629667,0.6361489750508510,3.499650874479290,182.3794321644420,242.1877505771180,229.5256149009010,1.90648163754249,0.6875814637324370,2459190.258438790000,20201206.7584388,523.5743239001700,1.43346837481224,0.0240529,9.360667093,3.43322,4.948,4.392E-08,4.3552E-09,5.7618E-08,3.7208E-06,2.8615E-05,2.927E-05,1.6587E-05,6.5312E-09,3.5332E-09,2.5094E-05,2.6905E-06,APO,Otto Matic,11845,1988-03-12,2020-08-16,439,4,4,0,0.52286,,,,,
a0006047,2006047,6047 (1991 TB1),6047,,,Y,N,17.8,,,,,,,,,,,,,,,S,,,,JPL 159,2459000.5,59000,20200531.0000000,J2000,0.3523121906687450,1.454478112032760,0.942047742102756,23.47155619621170,6.102252724526190,103.7711184370440,63.48252041256820,1.966908481962760,0.561879631317354,2458887.517580150000,20200208.0175801,640.706621017677,1.754159126674,0.139979,54.47562743,3.30737,4.485,4.3418E-08,1.28E-09,6.3329E-08,1.0261E-05,7.034E-06,1.2734E-05,8.2266E-06,1.7309E-09,7.4171E-10,1.4583E-05,8.4576E-07,APO,Otto Matic,12849,1985-03-20,2020-05-24,790,,,0,0.50779,,,,,
a0006050,2006050,6050 Miwablock (1992 AE),6050,Miwablock,,Y,N,14.9,,,,,,,2.884,,0.257,5.7566,,,,,,,,0.073,JPL 403,2459000.5,59000,20200531.0000000,J2000,0.437169841153233,2.20196715492824,1.239333523583630,6.405607516823400,88.19465395675860,284.9676460814960,270.8126157451720,3.164600786272860,0.3016392268374750,2459296.175682470000,20210322.6756825,1193.478725477470,3.26756666797391,0.268653,104.55168801,2.3255,3.526,3.1133E-08,4.9966E-09,6.91E-08,3.9468E-06,3.1648E-05,3.1919E-05,6.4226E-06,7.181E-09,1.0267E-09,2.1847E-05,4.0623E-06,AMO,Otto Matic,24676,1953-02-15,2020-09-07,1883,,,0,0.46868,,,,,
a0006053,2006053,6053 (1993 BW3),6053,,,Y,N,14.8,,,,,,,3.720,,0.140,2.573,,,,,Sq,,,0.078,JPL 273,2459000.5,59000,20200531.0000000,J2000,0.5282889045117430,2.147726402189620,1.013106373985920,21.58073178312750,318.2645621201090,74.87201624658920,300.9291092778060,3.282346430393330,0.3131379037322470,2459189.141777370000,20201205.6417774,1149.653222140180,3.14757897916545,0.223054,86.80592518,2.69198,3.437,2.3627E-08,2.1754E-09,5.0947E-08,6.4535E-06,6.8853E-06,9.8874E-06,2.9732E-06,3.3246E-09,4.7575E-10,9.6441E-06,1.7467E-06,APO,Otto Matic,16152,1976-06-04,2020-08-24,1734,,,0,0.36501,,,,,
a0006063,2006063,6063 Jason (1984 KB),6063,Jason,,Y,N,15.9,,,,,,,1.4,,0.21,48.6,,,,,,,,,JPL 179,2459000.5,59000,20200531.0000000,J2000,0.7662255850032110,2.213020954107680,0.5173476789221570,4.918375419542130,169.3964692809260,337.1379443126230,343.0592518956570,3.908694229293200,0.2993820685443550,2459057.085713990000,20200726.5857140,1202.476827521370,3.29220212873749,0.0744886,28.988728462,1.13685,3.186,7.253E-09,2.3603E-09,1.6472E-08,1.4185E-06,4.5665E-05,4.501E-05,5.116E-07,4.1687E-09,4.7895E-10,1.7953E-06,1.9237E-06,APO,Otto Matic,21584,1960-10-22,2019-11-26,1185,7,3,0,0.37911,,,,,
a0006178,2006178,6178 (1986 DA),6178,,,Y,N,15.8,,,,,,,2.3,,0.15,3.5002,,0.677,0.267,,,,,,JPL 165,2459000.5,59000,20200531.0000000,J2000,0.5819601132102770,2.820877927687290,1.179239489538020,4.304841477007560,64.61740884516940,127.3596292789950,81.08577729666400,4.462516365836560,0.2080307979546520,2458610.722245490000,20190507.2222455,1730.512998745860,4.7378863757587,0.189563,73.77223271,0.521546,3.039,2.193E-08,5.3266E-09,6.291E-08,4.8236E-06,6.7658E-05,6.7751E-05,3.8763E-06,8.4265E-09,5.8924E-10,1.7617E-05,4.9016E-06,AMO,Otto Matic,15739,1977-07-17,2020-08-19,1044,1,1,0,0.45089,,,,,
a0006239,2006239,6239 Minos (1989 QF),6239,Minos,,Y,Y,18.5,,,,,,,,,,3.5558,,,,,,,,,JPL 206,2459000.5,59000,20200531.0000000,J2000,0.4126441604595510,1.1513991468821,0.676281012563093,3.942233776258180,344.5827116726710,239.7125057970700,27.69509736688360,1.626517281201110,0.7977470720664870,2458965.783360680000,20200426.2833607,451.2708508819150,1.23551225429682,0.026377,10.26513709,3.36172,5.374,2.147E-08,1.3276E-09,2.4059E-08,2.2817E-06,2.6817E-05,2.6616E-05,1.0354E-05,1.8755E-09,1.3798E-09,1.292E-05,7.8052E-07,APO,Otto Matic,13740,1983-01-14,2020-08-27,1027,3,0,0,0.47034,,,,,
a0006455,2006455,6455 (1992 HE),6455,,,Y,N,13.9,,,,,,,4.626,,0.227,2.7361,,,,,S,,,0.407,JPL 341,2459000.5,59000,20200531.0000000,J2000,0.572546355057958,2.240985349937970,0.957917356092703,37.33702616661290,26.94439207564340,262.7619614309550,119.8834239404060,3.524053343783240,0.2937957761816110,2458592.449804390000,20190418.9498044,1225.34096534276,3.35480072646888,0.289476,112.65537492,2.84525,3.177,2.655E-08,5.7067E-09,5.9407E-08,6.1381E-06,6.8879E-06,8.9216E-06,9.476E-06,8.974E-09,1.1222E-09,3.0929E-05,4.6805E-06,APO,Otto Matic,11101,1989-09-29,2020-02-20,1717,,,0,0.42111,,,,,
a0006456,2006456,6456 Golombek (1992 OM),6456,Golombek,,Y,N,15.9,,,,,,,,,,2.50129,,,,,,,,,JPL 255,2459000.5,59000,20200531.0000000,J2000,0.4093296378064730,2.19289606605955,1.295278713592160,8.225273048191730,313.5800874042580,347.1339917397530,209.272858230558,3.090513418526940,0.3035127929978670,2459497.108858820000,20211009.6088588,1186.111453307110,3.24739617606327,0.281922,109.71558474,2.17332,3.545,4.2999E-08,2.267E-09,9.4372E-08,4.0617E-06,2.0581E-05,2.1144E-05,3.7799E-06,3.195E-09,4.7066E-10,1.2762E-05,1.8393E-06,AMO,Otto Matic,14774,1979-08-22,2020-02-02,1203,,,0,0.45383,,,,,
a0006489,2006489,6489 Golevka (1991 JX),6489,Golevka,,Y,Y,19.2,,,,,,,0.53,,0.151,6.026,,,,,Q,,,0.03,JPL 105,2452464.5,52464,20020709.0000000,J2000,0.6052965473603550,2.502473955538530,0.987735110391848,2.276480760253870,211.0620214995180,66.65547373733820,274.4136345211530,4.017212800685210,0.2489715508263600,2452808.259619100000,20030617.7596191,1445.948337491270,3.95879079395284,0.0280499,10.916179583,1.14488,3.182,2.478E-09,4.5222E-10,6.0535E-09,6.4443E-07,2.1622E-05,2.2559E-05,2.1038E-07,7.2595E-10,6.7488E-11,9.3587E-07,3.9195E-07,APO,Otto Matic,8968,1991-04-15,2015-11-03,1017,20,20,0,0.61351,,,-1.15128000740178E-14,,
a0006491,2006491,6491 (1991 OA),6491,,,Y,Y,18.7,,,,,,,,,,2.69,,,,,,,,,JPL 29,2459000.5,59000,20200531.0000000,J2000,0.5910939116910700,2.500187074248020,1.022341716571310,5.948776069327470,301.8888097562930,323.6421544820490,104.3860073669090,3.978032431924740,0.2493132243948250,2458581.805774610000,20190408.3057746,1443.966724484240,3.95336543322174,0.0417607,16.252011619,1.18229,3.193,3.9322E-08,2.4584E-08,1.0166E-07,1.0465E-05,8.3118E-05,8.4242E-05,7.683E-06,3.9115E-08,3.6771E-09,2.892E-05,2.1297E-05,AMO,Otto Matic,10431,1991-03-18,2019-10-08,190,,,0,0.5576,,,,,
a0006569,2006569,6569 Ondaatje (1993 MO),6569,Ondaatje,,Y,N,16.4,,,,,,,,,,5.959,,,,,Sr,,,,JPL 221,2459000.5,59000,20200531.0000000,J2000,0.2208909117720580,1.626161162386590,1.26695694053871,22.6412762309334,111.4817204897010,167.3100106356190,348.5613683382870,1.985365384234480,0.4752900219713660,2459024.566635390000,20200624.0666354,757.432269473749,2.07373653517796,0.254928,99.21032976,3.18901,4.206,4.8637E-08,2.1651E-09,7.8378E-08,4.9278E-06,7.5305E-06,1.2968E-05,7.4629E-06,2.6434E-09,9.4922E-10,1.5683E-05,1.5127E-06,AMO,Otto Matic,13399,1983-12-29,2020-09-04,1999,,,0,0.35597,,,,,
a0006611,2006611,6611 (1993 VW),6611,,,Y,N,16.8,,,,,,,1.408,,0.158,2.5568,,,,,V,,,0.340,JPL 248,2459000.5,59000,20200531.0000000,J2000,0.4845960634460770,1.696077720565240,0.8741651338807280,8.696810018986830,230.9430447819700,281.3346567206800,321.3402536189920,2.517990307249750,0.4462060452505400,2459087.141018860000,20200825.6410189,806.802157505204,2.2089039219855,0.0608608,23.685197536,2.55395,4.055,2.9212E-08,2.1919E-09,4.9876E-08,4.8906E-06,1.8248E-05,1.88E-05,5.8331E-06,3.2541E-09,8.6497E-10,1.3199E-05,1.564E-06,APO,Otto Matic,13497,1982-11-15,2019-10-29,1164,,,0,0.51081,,,,,
